{
    "links": {
        "self": "http://www.neowsapp.com/rest/v1/neo/54016644?api_key=iIulBulltgU6a56xZRHN4H3l9WmuAYTsLGpBGhQ2"
    },
    "id": "54016644",
    "neo_reference_id": "54016644",
    "name": "(2020 HB3)",
    "designation": "2020 HB3",
    "nasa_jpl_url": "http://ssd.jpl.nasa.gov/sbdb.cgi?sstr=54016644",
    "absolute_magnitude_h": 25.108,
    "estimated_diameter": {
        "kilometers": {
            "estimated_diameter_min": 0.025290358,
            "estimated_diameter_max": 0.0565509596
        },
        "meters": {
            "estimated_diameter_min": 25.2903579722,
            "estimated_diameter_max": 56.5509596012
        },
        "miles": {
            "estimated_diameter_min": 0.015714695,
            "estimated_diameter_max": 0.0351391263
        },
        "feet": {
            "estimated_diameter_min": 82.9736180496,
            "estimated_diameter_max": 185.534650298
        }
    },
    "is_potentially_hazardous_asteroid": false,
    "close_approach_data": [
        {
            "close_approach_date": "2018-09-15",
            "close_approach_date_full": "2018-Sep-15 05:43",
            "epoch_date_close_approach": 1536990180000,
            "relative_velocity": {
                "kilometers_per_second": "19.8769890898",
                "kilometers_per_hour": "71557.1607231526",
                "miles_per_hour": "44462.8368948944"
            },
            "miss_distance": {
                "astronomical": "0.3829700874",
                "lunar": "148.9753639986",
                "kilometers": "57291509.348753838",
                "miles": "35599293.1481574444"
            },
            "orbiting_body": "Earth"
        },
        {
            "close_approach_date": "2020-04-30",
            "close_approach_date_full": "2020-Apr-30 04:08",
            "epoch_date_close_approach": 1588219680000,
            "relative_velocity": {
                "kilometers_per_second": "12.2197894348",
                "kilometers_per_hour": "43991.2419652717",
                "miles_per_hour": "27334.446986699"
            },
            "miss_distance": {
                "astronomical": "0.0332032605",
                "lunar": "12.9160683345",
                "kilometers": "4967137.047855135",
                "miles": "3086435.841605463"
            },
            "orbiting_body": "Earth"
        }
    ],
    "orbital_data": {
        "orbit_id": "3",
        "orbit_determination_date": "2020-04-25 06:51:48",
        "first_observation_date": "2020-04-19",
        "last_observation_date": "2020-04-25",
        "data_arc_in_days": 6,
        "observations_used": 43,
        "orbit_uncertainty": "8",
        "minimum_orbit_intersection": ".00319448",
        "jupiter_tisserand_invariant": "4.399",
        "epoch_osculation": "2458960.5",
        "eccentricity": ".4081678493145113",
        "semi_major_axis": "1.515903744675813",
        "inclination": "11.27060247708424",
        "ascending_node_longitude": "43.7779248002384",
        "orbital_period": "681.7197334839061",
        "perihelion_distance": ".8971605734436726",
        "perihelion_argument": "230.5099551805001",
        "aphelion_distance": "2.134646915907954",
        "perihelion_time": "2459011.117612797038",
        "mean_anomaly": "333.2700408805698",
        "mean_motion": ".5280762493997818",
        "equinox": "J2000",
        "orbit_class": {
            "orbit_class_type": "APO",
            "orbit_class_description": "Near-Earth asteroid orbits which cross the Earth’s orbit similar to that of 1862 Apollo",
            "orbit_class_range": "a (semi-major axis) > 1.0 AU; q (perihelion) < 1.017 AU"
        }
    },
    "is_sentry_object": false
}